[{"OBJECT_NAME":"STARLINK-5062","OBJECT_ID":"2023-021K","EPOCH":"2026-03-09T17:21:18.039744","MEAN_MOTION":14.98327896,"ECCENTRICITY":0.00032112,"INCLINATION":70.0006,"RA_OF_ASC_NODE":184.4829,"ARG_OF_PERICENTER":272.1961,"MEAN_ANOMALY":87.883,"EPHEMERIS_TYPE":0,"CLASSIFICATION_TYPE":"U","NORAD_CAT_ID":55637,"ELEMENT_SET_NO":999,"REV_AT_EPOCH":16879,"BSTAR":-2.3702506e-5,"MEAN_MOTION_DOT":-3.76e-6,"MEAN_MOTION_DDOT":0},{"OBJECT_NAME":"LANDSAT 5","OBJECT_ID":"1984-021A","EPOCH":"2026-03-09T17:06:39.595392","MEAN_MOTION":15.03956175,"ECCENTRICITY":0.00705197,"INCLINATION":98.0698,"RA_OF_ASC_NODE":343.5816,"ARG_OF_PERICENTER":90.3041,"MEAN_ANOMALY":270.6265,"EPHEMERIS_TYPE":0,"CLASSIFICATION_TYPE":"U","NORAD_CAT_ID":14780,"ELEMENT_SET_NO":999,"REV_AT_EPOCH":77643,"BSTAR":0.00029889959,"MEAN_MOTION_DOT":4.286e-5,"MEAN_MOTION_DDOT":0}]
